[{"OBJECT_NAME":"SKYKRAFT-1A","OBJECT_ID":"2023-001AX","EPOCH":"2026-03-09T17:03:19.828224","MEAN_MOTION":15.28083228,"ECCENTRICITY":0.00112767,"INCLINATION":97.3349,"RA_OF_ASC_NODE":127.629,"ARG_OF_PERICENTER":121.5092,"MEAN_ANOMALY":238.7251,"EPHEMERIS_TYPE":0,"CLASSIFICATION_TYPE":"U","NORAD_CAT_ID":55054,"ELEMENT_SET_NO":999,"REV_AT_EPOCH":17652,"BSTAR":0.0003006872,"MEAN_MOTION_DOT":8.177e-5,"MEAN_MOTION_DDOT":0},{"OBJECT_NAME":"STARLINK-35416","OBJECT_ID":"2025-245Q","EPOCH":"2026-03-09T20:48:09.306432","MEAN_MOTION":15.30244737,"ECCENTRICITY":0.00016047,"INCLINATION":53.1591,"RA_OF_ASC_NODE":283.0705,"ARG_OF_PERICENTER":57.4199,"MEAN_ANOMALY":302.6957,"EPHEMERIS_TYPE":0,"CLASSIFICATION_TYPE":"U","NORAD_CAT_ID":66248,"ELEMENT_SET_NO":999,"REV_AT_EPOCH":2122,"BSTAR":0.001032988,"MEAN_MOTION_DOT":0.00030403,"MEAN_MOTION_DDOT":0}]
